[{"OBJECT_NAME":"ICEYE-X55","OBJECT_ID":"2025-135BF","EPOCH":"2026-03-09T23:11:31.179840","MEAN_MOTION":14.94509774,"ECCENTRICITY":0.00023204,"INCLINATION":97.761,"RA_OF_ASC_NODE":184.7311,"ARG_OF_PERICENTER":334.7354,"MEAN_ANOMALY":25.3752,"EPHEMERIS_TYPE":0,"CLASSIFICATION_TYPE":"U","NORAD_CAT_ID":64581,"ELEMENT_SET_NO":999,"REV_AT_EPOCH":3909,"BSTAR":0.00046783464,"MEAN_MOTION_DOT":4.996e-5,"MEAN_MOTION_DDOT":0},{"OBJECT_NAME":"LEMUR-2-HUBBLE-5","OBJECT_ID":"2025-135BT","EPOCH":"2026-03-09T21:32:18.396096","MEAN_MOTION":14.93781203,"ECCENTRICITY":0.00044862,"INCLINATION":97.7587,"RA_OF_ASC_NODE":184.5753,"ARG_OF_PERICENTER":317.3017,"MEAN_ANOMALY":42.7854,"EPHEMERIS_TYPE":0,"CLASSIFICATION_TYPE":"U","NORAD_CAT_ID":64840,"ELEMENT_SET_NO":999,"REV_AT_EPOCH":3908,"BSTAR":0.00019938293,"MEAN_MOTION_DOT":2.057e-5,"MEAN_MOTION_DDOT":0}]
